COMMENT,ORIGINATOR,NORAD_CAT_ID,OBJECT_NAME,OBJECT_TYPE,CLASSIFICATION_TYPE,INTLDES,EPOCH,EPOCH_MICROSECONDS,MEAN_MOTION,ECCENTRICITY,INCLINATION,RA_OF_ASC_NODE,ARG_OF_PERICENTER,MEAN_ANOMALY,EPHEMERIS_TYPE,ELEMENT_SET_NO,REV_AT_EPOCH,BSTAR,MEAN_MOTION_DOT,MEAN_MOTION_DDOT,FILE,TLE_LINE0,TLE_LINE1,TLE_LINE2,OBJECT_ID,OBJECT_NUMBER,SEMIMAJOR_AXIS,PERIOD,APOGEE,PERIGEE,DECAYED
"GENERATED VIA SPACETRACK.ORG API","18 SPCS","55096","SPACEBEE-161","PAYLOAD","U","23001CR","2023-03-05 21:46:13","646496","15.15813316","0.0015821","97.4919","126.1416","5.6897","354.4513","0","999","943","0.0015561","0.00029852","0","3852135","0 SPACEBEE-161","1 55096U 23001CR  23064.90710239  .00029852  00000-0  15561-2 0  9993","2 55096  97.4919 126.1416 0015821   5.6897 354.4513 15.15813316  9434","2023-001CR","55096","6896.648","94.999","529.424","507.601","0"
"GENERATED VIA SPACETRACK.ORG API","18 SPCS","55096","SPACEBEE-161","PAYLOAD","U","23001CR","2023-03-05 21:46:13","646496","15.15813316","0.0015821","97.4919","126.1416","5.6897","354.4513","0","999","943","0.0015561","0.00029852","0","3852256","0 SPACEBEE-161","1 55096U 23001CR  23064.90710239  .00029852  00000-0  15561-2 0  9993","2 55096  97.4919 126.1416 0015821   5.6897 354.4513 15.15813316  9434","2023-001CR","55096","6896.648","94.999","529.424","507.601","0"
"GENERATED VIA SPACETRACK.ORG API","18 SPCS","55096","SPACEBEE-161","PAYLOAD","U","23001CR","2023-03-06 21:32:04","644672","15.15874065","0.0015725","97.4918","127.1193","2.2887","357.8415","0","999","958","0.0015495","0.00029775","0","3853141","0 SPACEBEE-161","1 55096U 23001CR  23065.89727598  .00029775  00000-0  15495-2 0  9998","2 55096  97.4918 127.1193 0015725   2.2887 357.8415 15.15874065  9583","2023-001CR","55096","6896.463","94.995","529.173","507.484","0"
"GENERATED VIA SPACETRACK.ORG API","18 SPCS","55096","SPACEBEE-161","PAYLOAD","U","23001CR","2023-03-07 03:52:17","724000","15.15889942","0.0015722","97.4916","127.3799","1.5252","358.6025","0","999","962","0.0015521","0.00029838","0","3853393","0 SPACEBEE-161","1 55096U 23001CR  23066.16131625  .00029838  00000-0  15521-2 0  9999","2 55096  97.4916 127.3799 0015722   1.5252 358.6025 15.15889942  9621","2023-001CR","55096","6896.415","94.994","529.123","507.438","0"
"GENERATED VIA SPACETRACK.ORG API","18 SPCS","55096","SPACEBEE-161","PAYLOAD","U","23001CR","2023-03-07 21:17:52","390752","15.15931276","0.0015603","97.4912","128.0963","358.9506","1.1692","0","999","973","0.0014947","0.00028761","0","3854072","0 SPACEBEE-161","1 55096U 23001CR  23066.88741193  .00028761  00000-0  14947-2 0  9990","2 55096  97.4912 128.0963 0015603 358.9506   1.1692 15.15931276  9737","2023-001CR","55096","6896.290","94.991","528.915","507.394","0"
"GENERATED VIA SPACETRACK.ORG API","18 SPCS","55096","SPACEBEE-161","PAYLOAD","U","23001CR","2023-03-08 09:58:16","529376","15.15960109","0.0015533","97.4908","128.6172","356.9008","3.2126","0","999","981","0.0014164","0.00027267","0","3854586","0 SPACEBEE-161","1 55096U 23001CR  23067.41546909  .00027267  00000-0  14164-2 0  9999","2 55096  97.4908 128.6172 0015533 356.9008   3.2126 15.15960109  9818","2023-001CR","55096","6896.202","94.989","528.779","507.355","0"
"GENERATED VIA SPACETRACK.ORG API","18 SPCS","55096","SPACEBEE-161","PAYLOAD","U","23001CR","2023-03-08 21:03:37","30752","15.15994067","0.00155","97.4905","129.0734","355.1028","5.005","0","999","988","0.00227","0.00043879","0","3855077","0 SPACEBEE-161","1 55096U 23001CR  23067.87751193  .00043879  00000-0  22700-2 0  9994","2 55096  97.4905 129.0734 0015500 355.1028   5.0050 15.15994067  9884","2023-001CR","55096","6896.099","94.987","528.653","507.275","0"
"GENERATED VIA SPACETRACK.ORG API","18 SPCS","55096","SPACEBEE-161","PAYLOAD","U","23001CR","2023-03-09 17:39:12","826368","15.16044621","0.001542","97.4897","129.92","351.8534","8.2446","0","999","1001","0.0017801","0.00034399","0","3855764","0 SPACEBEE-161","1 55096U 23001CR  23068.73556512  .00034399  00000-0  17801-2 0  9991","2 55096  97.4897 129.9200 0015420 351.8534   8.2446 15.16044621 10011","2023-001CR","55096","6895.946","94.984","528.445","507.177","0"
"GENERATED VIA SPACETRACK.ORG API","18 SPCS","55096","SPACEBEE-161","PAYLOAD","U","23001CR","2023-03-09 17:39:12","826368","15.16044621","0.001542","97.4897","129.92","351.8534","8.2446","0","999","1001","0.0017801","0.00034399","0","3855951","0 SPACEBEE-161","1 55096U 23001CR  23068.73556512  .00034399  00000-0  17801-2 0  9991","2 55096  97.4897 129.9200 0015420 351.8534   8.2446 15.16044621 10011","2023-001CR","55096","6895.946","94.984","528.445","507.177","0"
"GENERATED VIA SPACETRACK.ORG API","18 SPCS","55096","SPACEBEE-161","PAYLOAD","U","23001CR","2023-03-10 09:29:38","565600","15.16087854","0.0015383","97.4891","130.5712","349.3027","10.7876","0","999","1011","0.0017469","0.00033795","0","3856975","0 SPACEBEE-161","1 55096U 23001CR  23069.39558525  .00033795  00000-0  17469-2 0  9999","2 55096  97.4891 130.5712 0015383 349.3027  10.7876 15.16087854 10119","2023-001CR","55096","6895.815","94.981","528.288","507.072","0"
"GENERATED VIA SPACETRACK.ORG API","18 SPCS","55096","SPACEBEE-161","PAYLOAD","U","23001CR","2023-03-11 02:55:05","204928","15.1612738","0.001539","97.4892","131.2877","346.6569","13.4254","0","999","1022","0.0014819","0.0002867","0","3857185","0 SPACEBEE-161","1 55096U 23001CR  23070.12158802  .00028670  00000-0  14819-2 0  9998","2 55096  97.4892 131.2877 0015390 346.6569  13.4254 15.16127380 10220","2023-001CR","55096","6895.695","94.979","528.173","506.948","0"
"GENERATED VIA SPACETRACK.ORG API","18 SPCS","55096","SPACEBEE-161","PAYLOAD","U","23001CR","2023-03-11 02:55:05","204928","15.1612738","0.001539","97.4892","131.2877","346.6569","13.4254","0","999","1022","0.0014819","0.0002867","0","3857581","0 SPACEBEE-161","1 55096U 23001CR  23070.12158802  .00028670  00000-0  14819-2 0  9998","2 55096  97.4892 131.2877 0015390 346.6569  13.4254 15.16127380 10220","2023-001CR","55096","6895.695","94.979","528.173","506.948","0"
"GENERATED VIA SPACETRACK.ORG API","18 SPCS","55096","SPACEBEE-161","PAYLOAD","U","23001CR","2023-03-11 15:35:23","419104","15.1615732","0.0015359","97.4892","131.8087","344.6079","15.4684","0","999","1030","0.0013044","0.00025238","0","3857847","0 SPACEBEE-161","1 55096U 23001CR  23070.64957661  .00025238  00000-0  13044-2 0  9991","2 55096  97.4892 131.8087 0015359 344.6079  15.4684 15.16157320 10303","2023-001CR","55096","6895.604","94.977","528.060","506.878","0"
"GENERATED VIA SPACETRACK.ORG API","18 SPCS","55096","SPACEBEE-161","PAYLOAD","U","23001CR","2023-03-12 02:40:38","725248","15.16180776","0.0015339","97.4892","132.2651","343.1614","16.9107","0","999","1037","0.001271","0.00024604","0","3858534","0 SPACEBEE-161","1 55096U 23001CR  23071.11155932  .00024604  00000-0  12710-2 0  9990","2 55096  97.4892 132.2651 0015339 343.1614  16.9107 15.16180776 10376","2023-001CR","55096","6895.533","94.975","527.975","506.821","0"
"GENERATED VIA SPACETRACK.ORG API","18 SPCS","55096","SPACEBEE-161","PAYLOAD","U","23001CR","2023-03-13 02:26:09","298464","15.16233192","0.0015224","97.4899","133.2429","339.5783","20.4839","0","999","1052","0.0012924","0.00025057","0","3858900","0 SPACEBEE-161","1 55096U 23001CR  23072.10149651  .00025057  00000-0  12924-2 0  9991","2 55096  97.4899 133.2429 0015224 339.5783  20.4839 15.16233192 10526","2023-001CR","55096","6895.374","94.972","527.737","506.742","0"
"GENERATED VIA SPACETRACK.ORG API","18 SPCS","55096","SPACEBEE-161","PAYLOAD","U","23001CR","2023-03-13 02:26:09","298464","15.16233192","0.0015224","97.4899","133.2429","339.5783","20.4839","0","999","1052","0.0012924","0.00025057","0","3859425","0 SPACEBEE-161","1 55096U 23001CR  23072.10149651  .00025057  00000-0  12924-2 0  9991","2 55096  97.4899 133.2429 0015224 339.5783  20.4839 15.16233192 10526","2023-001CR","55096","6895.374","94.972","527.737","506.742","0"
"GENERATED VIA SPACETRACK.ORG API","18 SPCS","55096","SPACEBEE-161","PAYLOAD","U","23001CR","2023-03-14 03:46:39","98208","15.16277912","0.0015108","97.49","134.2853","335.699","24.3528","0","999","1068","0.0011367","0.00022048","0","3859883","0 SPACEBEE-161","1 55096U 23001CR  23073.15739697  .00022048  00000-0  11367-2 0  9999","2 55096  97.4900 134.2853 0015108 335.6990  24.3528 15.16277912 10682","2023-001CR","55096","6895.239","94.969","527.521","506.686","0"
"GENERATED VIA SPACETRACK.ORG API","18 SPCS","55096","SPACEBEE-161","PAYLOAD","U","23001CR","2023-03-14 03:46:39","98208","15.16277912","0.0015108","97.49","134.2853","335.699","24.3528","0","999","1068","0.0011367","0.00022048","0","3860373","0 SPACEBEE-161","1 55096U 23001CR  23073.15739697  .00022048  00000-0  11367-2 0  9999","2 55096  97.4900 134.2853 0015108 335.6990  24.3528 15.16277912 10682","2023-001CR","55096","6895.239","94.969","527.521","506.686","0"
"GENERATED VIA SPACETRACK.ORG API","18 SPCS","55096","SPACEBEE-161","PAYLOAD","U","23001CR","2023-03-14 14:51:51","275808","15.16300459","0.001501","97.4899","134.7411","334.2386","25.8098","0","999","1075","0.001243","0.00024138","0","3860643","0 SPACEBEE-161","1 55096U 23001CR  23073.61934347  .00024138  00000-0  12430-2 0  9993","2 55096  97.4899 134.7411 0015010 334.2386  25.8098 15.16300459 10759","2023-001CR","55096","6895.170","94.968","527.385","506.686","0"
"GENERATED VIA SPACETRACK.ORG API","18 SPCS","55096","SPACEBEE-161","PAYLOAD","U","23001CR","2023-03-15 03:32:04","359552","15.16329475","0.001501","97.4897","135.2626","332.2506","27.7924","0","999","1083","0.0013671","0.00026585","0","3861201","0 SPACEBEE-161","1 55096U 23001CR  23074.14727268  .00026585  00000-0  13671-2 0  9990","2 55096  97.4897 135.2626 0015010 332.2506  27.7924 15.16329475 10830","2023-001CR","55096","6895.082","94.966","527.297","506.598","0"
